{"type": "FeatureCollection", "features": [ {"type": "Feature", "properties": {"norad_id": 28649, "name": "IRS-P5 (CARTOSAT-1)", "group": "resource", "lat": -12.486819896183084, "lon": -170.2833678933646, "alt_km": 602.0183621084407, "timestamp": "2025-12-10T21:43:21.742972+00:00", "meta": {"OBJECT_NAME": "IRS-P5 (CARTOSAT-1)", "OBJECT_ID": "2005-017A", "EPOCH": "2025-12-10T11:11:38.274144", "MEAN_MOTION": 14.90392047, "ECCENTRICITY": 0.00013581, "INCLINATION": 97.5497, "RA_OF_ASC_NODE": 10.9804, "ARG_OF_PERICENTER": 46.7941, "MEAN_ANOMALY": 313.3391, "EPHEMERIS_TYPE": 0, "CLASSIFICATION_TYPE": "U", "NORAD_CAT_ID": 28649, "ELEMENT_SET_NO": 999, "REV_AT_EPOCH": 11570, "BSTAR": 0.00023500214, "MEAN_MOTION_DOT": 2.236e-05, "MEAN_MOTION_DDOT": 0}, "tle": {"line1": "1 28649U 05017A   25344.46641521  .00002236  00000+0  23500-3 0  9994", "line2": "2 28649  97.5497  10.9804 0001358  46.7941 313.3391 14.90392047115708"}}, "geometry": {"type": "Point", "coordinates": [-170.2833678933646, -12.486819896183084]}}, {"type": "Feature", "properties": {"norad_id": 28893, "name": "SINAH 1", "group": "resource", "lat": -0.1117576846674237, "lon": 113.47365731895822, "alt_km": 691.9349203478596, "timestamp": "2025-12-10T21:43:21.742983+00:00", "meta": {"OBJECT_NAME": "SINAH 1", "OBJECT_ID": "2005-043D", "EPOCH": "2025-12-10T15:09:42.310080", "MEAN_MOTION": 14.63958997, "ECCENTRICITY": 0.00152379, "INCLINATION": 98.2602, "RA_OF_ASC_NODE": 113.1834, "ARG_OF_PERICENTER": 143.2353, "MEAN_ANOMALY": 216.9897, "EPHEMERIS_TYPE": 0, "CLASSIFICATION_TYPE": "U", "NORAD_CAT_ID": 28893, "ELEMENT_SET_NO": 999, "REV_AT_EPOCH": 7293, "BSTAR": 0.00017053486, "MEAN_MOTION_DOT": 8.45e-06, "MEAN_MOTION_DDOT": 0}, "tle": {"line1": "1 28893U 05043D   25344.63173970  .00000845  00000+0  17053-3 0  9991", "line2": "2 28893  98.2602 113.1834 0015237 143.2353 216.9897 14.63958997 72933"}}, "geometry": {"type": "Point", "coordinates": [113.47365731895822, -0.1117576846674237]}}, {"type": "Feature", "properties": {"norad_id": 29079, "name": "EROS B", "group": "resource", "lat": 43.530254748492325, "lon": 94.35058551493886, "alt_km": 363.09334368437067, "timestamp": "2025-12-10T21:43:21.742994+00:00", "meta": {"OBJECT_NAME": "EROS B", "OBJECT_ID": "2006-014A", "EPOCH": "2025-12-10T13:52:28.755840", "MEAN_MOTION": 15.6735057, "ECCENTRICITY": 0.00018301, "INCLINATION": 97.3475, "RA_OF_ASC_NODE": 101.0497, "ARG_OF_PERICENTER": 292.2182, "MEAN_ANOMALY": 67.8884, "EPHEMERIS_TYPE": 0, "CLASSIFICATION_TYPE": "U", "NORAD_CAT_ID": 29079, "ELEMENT_SET_NO": 999, "REV_AT_EPOCH": 9046, "BSTAR": 0.0017723203, "MEAN_MOTION_DOT": 0.00194949, "MEAN_MOTION_DDOT": 0}, "tle": {"line1": "1 29079U 06014A   25344.57811060  .00194949  00000+0  17723-2 0  9991", "line2": "2 29079  97.3475 101.0497 0001830 292.2182  67.8884 15.67350570 90463"}}, "geometry": {"type": "Point", "coordinates": [94.35058551493886, 43.530254748492325]}}, {"type": "Feature", "properties": {"norad_id": 29228, "name": "RESURS-DK 1", "group": "resource", "lat": -35.02803304070217, "lon": 91.73417196781324, "alt_km": 532.8888275036934, "timestamp": "2025-12-10T21:43:21.743004+00:00", "meta": {"OBJECT_NAME": "RESURS-DK 1", "OBJECT_ID": "2006-021A", "EPOCH": "2025-12-10T12:21:47.683008", "MEAN_MOTION": 15.12141279, "ECCENTRICITY": 0.00074565, "INCLINATION": 69.9336, "RA_OF_ASC_NODE": 107.5872, "ARG_OF_PERICENTER": 261.4245, "MEAN_ANOMALY": 98.6075, "EPHEMERIS_TYPE": 0, "CLASSIFICATION_TYPE": "U", "NORAD_CAT_ID": 29228, "ELEMENT_SET_NO": 999, "REV_AT_EPOCH": 7404, "BSTAR": 0.00024714404, "MEAN_MOTION_DOT": 4.166e-05, "MEAN_MOTION_DDOT": 0}, "tle": {"line1": "1 29228U 06021A   25344.51513522  .00004166  00000+0  24714-3 0  9991", "line2": "2 29228  69.9336 107.5872 0007456 261.4245  98.6075 15.12141279 74040"}}, "geometry": {"type": "Point", "coordinates": [91.73417196781324, -35.02803304070217]}}, {"type": "Feature", "properties": {"norad_id": 29268, "name": "ARIRANG-2 (KOMPSAT-2)", "group": "resource", "lat": -78.85160791694038, "lon": -50.79289265072611, "alt_km": 680.3304930753693, "timestamp": "2025-12-10T21:43:21.743029+00:00", "meta": {"OBJECT_NAME": "ARIRANG-2 (KOMPSAT-2)", "OBJECT_ID": "2006-031A", "EPOCH": "2025-12-10T14:17:29.552352", "MEAN_MOTION": 14.64490575, "ECCENTRICITY": 0.00136267, "INCLINATION": 97.8261, "RA_OF_ASC_NODE": 173.1729, "ARG_OF_PERICENTER": 316.5225, "MEAN_ANOMALY": 114.1765, "EPHEMERIS_TYPE": 0, "CLASSIFICATION_TYPE": "U", "NORAD_CAT_ID": 29268, "ELEMENT_SET_NO": 999, "REV_AT_EPOCH": 3387, "BSTAR": 0.00012119115, "MEAN_MOTION_DOT": 5.98e-06, "MEAN_MOTION_DDOT": 0}, "tle": {"line1": "1 29268U 06031A   25344.59548093  .00000598  00000+0  12119-3 0  9996", "line2": "2 29268  97.8261 173.1729 0013626 316.5225 114.1765 14.64490575 33875"}}, "geometry": {"type": "Point", "coordinates": [-50.79289265072611, -78.85160791694038]}}, {"type": "Feature", "properties": {"norad_id": 29709, "name": "LAPAN-TUBSAT", "group": "resource", "lat": 56.0287707913559, "lon": -37.21904225894964, "alt_km": 597.2730244287695, "timestamp": "2025-12-10T21:43:21.743044+00:00", "meta": {"OBJECT_NAME": "LAPAN-TUBSAT", "OBJECT_ID": "2007-001A", "EPOCH": "2025-12-10T15:00:08.042112", "MEAN_MOTION": 14.85666223, "ECCENTRICITY": 0.00137089, "INCLINATION": 98.1258, "RA_OF_ASC_NODE": 334.7379, "ARG_OF_PERICENTER": 80.0696, "MEAN_ANOMALY": 280.2065, "EPHEMERIS_TYPE": 0, "CLASSIFICATION_TYPE": "U", "NORAD_CAT_ID": 29709, "ELEMENT_SET_NO": 999, "REV_AT_EPOCH": 2315, "BSTAR": 0.00013200578, "MEAN_MOTION_DOT": 1.088e-05, "MEAN_MOTION_DDOT": 0}, "tle": {"line1": "1 29709U 07001A   25344.62509308  .00001088  00000+0  13201-3 0  9992", "line2": "2 29709  98.1258 334.7379 0013708  80.0696 280.2065 14.85666223 23153"}}, "geometry": {"type": "Point", "coordinates": [-37.21904225894964, 56.0287707913559]}}, {"type": "Feature", "properties": {"norad_id": 31113, "name": "HAIYANG-1B", "group": "resource", "lat": -56.29513822370221, "lon": -18.0507983278763, "alt_km": 797.3542715717731, "timestamp": "2025-12-10T21:43:21.743055+00:00", "meta": {"OBJECT_NAME": "HAIYANG-1B", "OBJECT_ID": "2007-010A", "EPOCH": "2025-12-10T11:55:13.880352", "MEAN_MOTION": 14.3096387, "ECCENTRICITY": 0.00143582, "INCLINATION": 98.3312, "RA_OF_ASC_NODE": 328.8675, "ARG_OF_PERICENTER": 44.2073, "MEAN_ANOMALY": 316.0255, "EPHEMERIS_TYPE": 0, "CLASSIFICATION_TYPE": "U", "NORAD_CAT_ID": 31113, "ELEMENT_SET_NO": 999, "REV_AT_EPOCH": 97364, "BSTAR": 9.8240054e-05, "MEAN_MOTION_DOT": 2.17e-06, "MEAN_MOTION_DDOT": 0}, "tle": {"line1": "1 31113U 07010A   25344.49668843  .00000217  00000+0  98240-4 0  9999", "line2": "2 31113  98.3312 328.8675 0014358  44.2073 316.0255 14.30963870973649"}}, "geometry": {"type": "Point", "coordinates": [-18.0507983278763, -56.29513822370221]}}, {"type": "Feature", "properties": {"norad_id": 31598, "name": "COSMO-SKYMED 1", "group": "resource", "lat": -52.76009770391889, "lon": -179.20477446437224, "alt_km": 587.6303860233465, "timestamp": "2025-12-10T21:43:21.743066+00:00", "meta": {"OBJECT_NAME": "COSMO-SKYMED 1", "OBJECT_ID": "2007-023A", "EPOCH": "2025-12-10T15:32:21.339744", "MEAN_MOTION": 14.95738016, "ECCENTRICITY": 0.00010709, "INCLINATION": 97.8835, "RA_OF_ASC_NODE": 170.0331, "ARG_OF_PERICENTER": 85.9014, "MEAN_ANOMALY": 274.2329, "EPHEMERIS_TYPE": 0, "CLASSIFICATION_TYPE": "U", "NORAD_CAT_ID": 31598, "ELEMENT_SET_NO": 999, "REV_AT_EPOCH": 159, "BSTAR": 0.00051393663, "MEAN_MOTION_DOT": 5.669e-05, "MEAN_MOTION_DDOT": 0}, "tle": {"line1": "1 31598U 07023A   25344.64746921  .00005669  00000+0  51394-3 0  9995", "line2": "2 31598  97.8835 170.0331 0001070  85.9014 274.2329 14.95738016  1596"}}, "geometry": {"type": "Point", "coordinates": [-179.20477446437224, -52.76009770391889]}}, {"type": "Feature", "properties": {"norad_id": 31698, "name": "TERRASAR-X", "group": "resource", "lat": 11.525642859826803, "lon": 171.84103881899145, "alt_km": 509.524374610889, "timestamp": "2025-12-10T21:43:21.743077+00:00", "meta": {"OBJECT_NAME": "TERRASAR-X", "OBJECT_ID": "2007-026A", "EPOCH": "2025-12-10T13:04:49.433376", "MEAN_MOTION": 15.19151507, "ECCENTRICITY": 0.00018619, "INCLINATION": 97.446, "RA_OF_ASC_NODE": 349.9579, "ARG_OF_PERICENTER": 94.9214, "MEAN_ANOMALY": 265.2234, "EPHEMERIS_TYPE": 0, "CLASSIFICATION_TYPE": "U", "NORAD_CAT_ID": 31698, "ELEMENT_SET_NO": 999, "REV_AT_EPOCH": 2458, "BSTAR": 9.1186128e-05, "MEAN_MOTION_DOT": 1.848e-05, "MEAN_MOTION_DDOT": 0}, "tle": {"line1": "1 31698U 07026A   25344.54501659  .00001848  00000+0  91186-4 0  9994", "line2": "2 31698  97.4460 349.9579 0001861  94.9214 265.2234 15.19151507 24588"}}, "geometry": {"type": "Point", "coordinates": [171.84103881899145, 11.525642859826803]}}, {"type": "Feature", "properties": {"norad_id": 32060, "name": "WORLDVIEW-1 (WV-1)", "group": "resource", "lat": 46.235696227176106, "lon": -69.80697065302608, "alt_km": 487.4648307618054, "timestamp": "2025-12-10T21:43:21.743087+00:00", "meta": {"OBJECT_NAME": "WORLDVIEW-1 (WV-1)", "OBJECT_ID": "2007-041A", "EPOCH": "2025-12-10T06:57:50.790816", "MEAN_MOTION": 15.24623427, "ECCENTRICITY": 7.25e-05, "INCLINATION": 97.3835, "RA_OF_ASC_NODE": 101.8056, "ARG_OF_PERICENTER": 104.6633, "MEAN_ANOMALY": 255.4685, "EPHEMERIS_TYPE": 0, "CLASSIFICATION_TYPE": "U", "NORAD_CAT_ID": 32060, "ELEMENT_SET_NO": 999, "REV_AT_EPOCH": 1410, "BSTAR": 0.00052474, "MEAN_MOTION_DOT": 0.00012888, "MEAN_MOTION_DDOT": 0}, "tle": {"line1": "1 32060U 07041A   25344.29017119  .00012888  00000+0  52474-3 0  9992", "line2": "2 32060  97.3835 101.8056 0000725 104.6633 255.4685 15.24623427 14103"}}, "geometry": {"type": "Point", "coordinates": [-69.80697065302608, 46.235696227176106]}}]}